ONEWEB-0267             
1 48985U 21060U   26022.60657478  .00000002  00000+0 -28004-4 0  9998
2 48985  87.9017 257.7556 0001386  74.4243 285.7041 13.16596108220435
ONEWEB-0268             
1 48986U 21060V   26022.57490890  .00000007  00000+0 -15254-4 0  9996
2 48986  87.9022 257.7713 0001508  77.2285 282.9014 13.16595975220698
ONEWEB-0269             
1 48987U 21060W   26022.63190343  .00000051  00000+0  99320-4 0  9998
2 48987  87.9007 257.7783 0001692  78.8726 281.2595 13.16596524220473
ONEWEB-0270             
1 48988U 21060X   26022.57333310  .00000021  00000+0  21491-4 0  9996
2 48988  87.9016 257.7752 0001030  90.7931 269.3318 13.16596924220505
ONEWEB-0271             
1 48989U 21060Y   26022.94065086  .00000141  00000+0  33434-3 0  9992
2 48989  87.9019 257.6903 0001271  76.6788 283.4484 13.16596128220558
ONEWEB-0272             
1 48990U 21060Z   26022.58282809  .00000011  00000+0 -48425-5 0  9993
2 48990  87.9018 257.7742 0001476  70.8824 289.2467 13.16596005220453
ONEWEB-0273             
1 48991U 21060AA  26022.60499949 -.00000042  00000+0 -14331-3 0  9994
2 48991  87.9021 257.7672 0001305  80.1304 279.9974 13.16595867220430
ONEWEB-0274             
1 48992U 21060AB  26022.40233804  .00000058  00000+0  11793-3 0  9993
2 48992  87.9007 257.8261 0001645  69.2582 290.8725 13.16596066220442
